IRIDIUM 155             
1 43573U 18061E   24282.49692520  .00000960  00000+0  33566-3 0  9993
2 43573  86.3945 314.4123 0002335  97.3147 262.8315 14.34220354324971
IRIDIUM 154             
1 43574U 18061F   24281.84998219 -.00000013  00000+0 -11769-4 0  9999
2 43574  86.3948 314.7857 0001927  91.4054 268.7363 14.34217199324926
IRIDIUM 163             
1 43575U 18061G   24282.52863621  .00000254  00000+0  83804-4 0  9998
2 43575  86.3947 314.4367 0002035  95.8715 264.2712 14.34216653324992
IRIDIUM 156             
1 43576U 18061H   24282.50326452  .00000014  00000+0 -19197-5 0  9993
2 43576  86.3948 314.4549 0002496 100.0063 260.1414 14.34217006324977
IRIDIUM 164             
1 43577U 18061J   24281.85632253  .00001487  00000+0  52365-3 0  9996
2 43577  86.3947 314.7553 0002320  89.2316 270.9146 14.34219134324931
IRIDIUM 159             
1 43578U 18061K   24282.03391827 -.00000002  00000+0 -76608-5 0  9999
2 43578  86.3944 314.6303 0002101  93.0338 267.1098 14.34216714324929
IRIDIUM 180             
1 43922U 19002A   24282.17293256  .00002611  00000+0  92474-3 0  9993
2 43922  86.3935 251.3990 0002165  82.6333 277.5109 14.34227462300597
IRIDIUM 176             
1 43923U 19002B   24282.42002053  .00017061  00000+0  26940-2 0  9994
2 43923  86.6066 251.3074 0002332  87.4999 272.6485 14.72278028308504
IRIDIUM 168             
1 43924U 19002C   24282.16659084  .00003018  00000+0  10699-2 0  9999
2 43924  86.3935 251.4617 0002243  85.5098 274.6354 14.34231921300532
IRIDIUM 173             
1 43925U 19002D   24282.43296769  .00002547  00000+0  90177-3 0  9993
2 43925  86.3934 251.2644 0002138  83.1651 276.9788 14.34239107300565
IRIDIUM 169             
1 43926U 19002E   24281.45788227  .00000545  00000+0  17177-3 0  9995
2 43926  86.4161 283.3215 0001759 144.2922 215.8394 14.38610930301418
IRIDIUM 172             
1 43927U 19002F   24282.42664241  .00000849  00000+0  29587-3 0  9998
2 43927  86.3938 251.2727 0002520  86.8863 273.2622 14.34221101300565
IRIDIUM 175             
1 43928U 19002G   24282.14261243  .00015051  00000+0  23752-2 0  9991
2 43928  86.1543 218.2111 0002458  92.5128 267.6370 14.72305984308451
IRIDIUM 171             
1 43929U 19002H   24282.40761912  .00000255  00000+0  83980-4 0  9990
2 43929  86.3940 251.5194 0002578  87.1115 273.0376 14.34221785300559
IRIDIUM 170             
1 43930U 19002J   24282.42620744  .00016207  00000+0  25594-2 0  9990
2 43930  86.6066 251.3101 0002606  80.1781 279.9730 14.72275139308510
IRIDIUM 167             
1 43931U 19002K   24281.84312304  .00001339  00000+0  47075-3 0  9995
2 43931  86.3931 251.5339 0002401  87.1381 273.0090 14.34227233300471
IRIDIUM 181             
1 56726U 23068S   24282.09309400  .00001537  00000+0  44834-3 0  9999
2 56726  86.8602 310.6897 0002539  92.4091 267.7402 14.43583540 73427
IRIDIUM 177             
1 56727U 23068T   24282.18757691  .00005820  00000+0  76115-3 0  9995
2 56727  86.1930 261.6827 0002552 101.2769 258.8739 14.80282935 75093
IRIDIUM 174             
1 56728U 23068U   24282.04721070  .00002765  00000+0  36017-3 0  9995
2 56728  86.1937 261.8623 0002681  97.8381 262.3145 14.80255109 75072
IRIDIUM 178             
1 56729U 23068V   24282.44704728  .00003339  00000+0  43568-3 0  9998
2 56729  86.5718 284.5187 0002462  91.0630 269.0874 14.80255094 75134
IRIDIUM 179             
1 56730U 23068W   24282.30642617  .00005088  00000+0  66557-3 0  9999
2 56730  86.6733 290.1433 0002452 102.4216 257.7280 14.80258212 75115
